*******************************************************************************
Ephemeris / WWW_USER Mon Mar 24 08:00:32 2025 Pasadena, USA      / Horizons    
*******************************************************************************
Target body name: (2018 UM1)                      {source: JPL#32}
Center body name: Earth (399)                     {source: DE441}
Center-site name: Mauna Kea
*******************************************************************************
Start time      : A.D. 2018-Dec-24 03:59:00.0000 UT      
Stop  time      : A.D. 2018-Dec-24 16:43:00.0000 UT      
Step-size       : 1 minutes
*******************************************************************************
Target pole/equ : undefined
Target radii    : undefined                                                    
Center geodetic : 204.5278, 19.8260847, 4.21024   {E-lon(deg),Lat(deg),Alt(km)}
Center cylindric: 204.5278, 6006.35451, 2151.0229 {E-lon(deg),Dxy(km),Dz(km)}
Center pole/equ : ITRF93                          {East-longitude positive}
Center radii    : 6378.137, 6378.137, 6356.752 km {Equator_a, b, pole_c}       
Target primary  : Sun
Vis. interferer : MOON (R_eq= 1737.400) km        {source: DE441}
Rel. light bend : Sun                             {source: DE441}
Rel. lght bnd GM: 1.3271E+11 km^3/s^2                                          
Small-body perts: Yes                             {source: SB441-N16}
Atmos refraction: NO (AIRLESS)
RA format       : HMS
Time format     : CAL 
Calendar mode   : Mixed Julian/Gregorian
RTS-only print  : NO       
EOP file        : eop.250321.p250617                                           
EOP coverage    : DATA-BASED 1962-JAN-20 TO 2025-MAR-21. PREDICTS-> 2025-JUN-16
Units conversion: 1 au= 149597870.700 km, c= 299792.458 km/s, 1 day= 86400.0 s 
Table cut-offs 1: Elevation (-90.0deg=NO ),Airmass (>38.000=NO), Daylight (YES)
Table cut-offs 2: Solar elongation (  0.0,180.0=NO ),Local Hour Angle( 0.0=NO )
Table cut-offs 3: RA/DEC angular rate (     0.0=NO )                           
*******************************************************************************
Initial IAU76/J2000 heliocentric ecliptic osculating elements (au, days, deg.):
  EPOCH=  2458316.5 ! 2018-Jul-17.00 (TDB)         Residual RMS= .13282        
   EC= .1732206266096905   QR= .9442469573310488   TP= 2458347.0882341689      
   OM= 261.2771090241423   W=  53.36399135060417   IN= 1.987806152492243       
  Equivalent ICRF heliocentric cartesian coordinates (au, au/d):
   X= 1.631856825953344E-01  Y=-8.815145891163165E-01  Z=-3.705958742828900E-01
  VX= 1.811434055353769E-02 VY= 4.114587132606022E-03 VZ= 2.434006136501484E-03
Asteroid physical parameters (km, seconds, rotational period in hours):        
   GM= n.a.                RAD= n.a.               ROTPER= n.a.                
   H= 23.64                G= .150                 B-V= n.a.                   
                           ALBEDO= n.a.            STYP= n.a.                  
*******************************************************************************
 Date__(UT)__HR:MN     R.A._________(ICRF)_________DEC
******************************************************
$$SOE
 2018-Dec-24 14:14  m  02 08 44.370921 +13 23 19.44448
 2018-Dec-24 14:15  m  02 08 44.458609 +13 23 19.64106
 2018-Dec-24 14:16  m  02 08 44.546323 +13 23 19.83770
 2018-Dec-24 14:17  m  02 08 44.634062 +13 23 20.03439
 2018-Dec-24 14:18  m  02 08 44.721826 +13 23 20.23114
 2018-Dec-24 14:19  m  02 08 44.809616 +13 23 20.42794
 2018-Dec-24 14:20  m  02 08 44.897430 +13 23 20.62479
 2018-Dec-24 14:21  m  02 08 44.985270 +13 23 20.82169
 2018-Dec-24 14:22  m  02 08 45.073135 +13 23 21.01866
 2018-Dec-24 14:23  m  02 08 45.161025 +13 23 21.21567
 2018-Dec-24 14:24  m  02 08 45.248940 +13 23 21.41274
 2018-Dec-24 14:25  m  02 08 45.336880 +13 23 21.60987
 2018-Dec-24 14:26  m  02 08 45.424844 +13 23 21.80705
 2018-Dec-24 14:27  m  02 08 45.512833 +13 23 22.00429
 2018-Dec-24 14:28  m  02 08 45.600847 +13 23 22.20158
 2018-Dec-24 14:29  m  02 08 45.688886 +13 23 22.39894
 2018-Dec-24 14:30  m  02 08 45.776949 +13 23 22.59635
 2018-Dec-24 14:31  m  02 08 45.865036 +13 23 22.79382
 2018-Dec-24 14:32  m  02 08 45.953148 +13 23 22.99134
 2018-Dec-24 14:33  m  02 08 46.041284 +13 23 23.18893
 2018-Dec-24 14:34  m  02 08 46.129444 +13 23 23.38657
 2018-Dec-24 14:35  m  02 08 46.217629 +13 23 23.58427
 2018-Dec-24 14:36  m  02 08 46.305837 +13 23 23.78203
 2018-Dec-24 14:37  m  02 08 46.394070 +13 23 23.97986
 2018-Dec-24 14:38  m  02 08 46.482327 +13 23 24.17774
 2018-Dec-24 14:39  m  02 08 46.570607 +13 23 24.37568
 2018-Dec-24 14:40  m  02 08 46.658911 +13 23 24.57368
 2018-Dec-24 14:41  m  02 08 46.747239 +13 23 24.77175
 2018-Dec-24 14:42  m  02 08 46.835591 +13 23 24.96988
 2018-Dec-24 14:43  m  02 08 46.923966 +13 23 25.16807
 2018-Dec-24 14:44  m  02 08 47.012365 +13 23 25.36632
 2018-Dec-24 14:45  m  02 08 47.100787 +13 23 25.56463
 2018-Dec-24 14:46  m  02 08 47.189233 +13 23 25.76301
 2018-Dec-24 14:47  m  02 08 47.277702 +13 23 25.96145
 2018-Dec-24 14:48  m  02 08 47.366194 +13 23 26.15995
 2018-Dec-24 14:49  m  02 08 47.454709 +13 23 26.35852
 2018-Dec-24 14:50  m  02 08 47.543247 +13 23 26.55716
 2018-Dec-24 14:51  m  02 08 47.631809 +13 23 26.75585
 2018-Dec-24 14:52  m  02 08 47.720393 +13 23 26.95462
 2018-Dec-24 14:53  m  02 08 47.809000 +13 23 27.15345
 2018-Dec-24 14:54  m  02 08 47.897629 +13 23 27.35234
 2018-Dec-24 14:55  m  02 08 47.986282 +13 23 27.55130
 2018-Dec-24 14:56  m  02 08 48.074956 +13 23 27.75033
 2018-Dec-24 14:57  m  02 08 48.163654 +13 23 27.94942
 2018-Dec-24 14:58  m  02 08 48.252374 +13 23 28.14858
 2018-Dec-24 14:59  m  02 08 48.341116 +13 23 28.34781
 2018-Dec-24 15:00  m  02 08 48.429880 +13 23 28.54711
 2018-Dec-24 15:01  m  02 08 48.518667 +13 23 28.74647
 2018-Dec-24 15:02  m  02 08 48.607475 +13 23 28.94590
 2018-Dec-24 15:03  m  02 08 48.696306 +13 23 29.14540
 2018-Dec-24 15:04  m  02 08 48.785159 +13 23 29.34497
 2018-Dec-24 15:05  m  02 08 48.874033 +13 23 29.54461
 2018-Dec-24 15:06  m  02 08 48.962929 +13 23 29.74432
 2018-Dec-24 15:07  m  02 08 49.051847 +13 23 29.94410
 2018-Dec-24 15:08  m  02 08 49.140787 +13 23 30.14395
 2018-Dec-24 15:09  m  02 08 49.229747 +13 23 30.34387
 2018-Dec-24 15:10  m  02 08 49.318730 +13 23 30.54387
 2018-Dec-24 15:11  m  02 08 49.407733 +13 23 30.74393
 2018-Dec-24 15:12  m  02 08 49.496758 +13 23 30.94406
 2018-Dec-24 15:13  m  02 08 49.585804 +13 23 31.14427
 2018-Dec-24 15:14  m  02 08 49.674871 +13 23 31.34455
 2018-Dec-24 15:15  m  02 08 49.763959 +13 23 31.54490
 2018-Dec-24 15:16  m  02 08 49.853068 +13 23 31.74532
 2018-Dec-24 15:17  m  02 08 49.942198 +13 23 31.94582
 2018-Dec-24 15:18  m  02 08 50.031349 +13 23 32.14639
 2018-Dec-24 15:19  m  02 08 50.120520 +13 23 32.34704
 2018-Dec-24 15:20  m  02 08 50.209711 +13 23 32.54776
 2018-Dec-24 15:21  m  02 08 50.298923 +13 23 32.74855
 2018-Dec-24 15:22  m  02 08 50.388156 +13 23 32.94942
 2018-Dec-24 15:23  m  02 08 50.477408 +13 23 33.15036
 2018-Dec-24 15:24  m  02 08 50.566681 +13 23 33.35138
 2018-Dec-24 15:25  m  02 08 50.655974 +13 23 33.55247
 2018-Dec-24 15:26  m  02 08 50.745287 +13 23 33.75364
 2018-Dec-24 15:27  m  02 08 50.834620 +13 23 33.95489
 2018-Dec-24 15:28  m  02 08 50.923972 +13 23 34.15621
 2018-Dec-24 15:29  m  02 08 51.013344 +13 23 34.35761
 2018-Dec-24 15:30  m  02 08 51.102736 +13 23 34.55909
 2018-Dec-24 15:31  m  02 08 51.192148 +13 23 34.76064
 2018-Dec-24 15:32  m  02 08 51.281578 +13 23 34.96227
 2018-Dec-24 15:33  m  02 08 51.371028 +13 23 35.16398
 2018-Dec-24 15:34  m  02 08 51.460498 +13 23 35.36577
 2018-Dec-24 15:35 Am  02 08 51.549986 +13 23 35.56763
 2018-Dec-24 15:36 Am  02 08 51.639494 +13 23 35.76958
 2018-Dec-24 15:37 Am  02 08 51.729020 +13 23 35.97160
 2018-Dec-24 15:38 Am  02 08 51.818565 +13 23 36.17370
 2018-Dec-24 15:39 Am  02 08 51.908129 +13 23 36.37588
 2018-Dec-24 15:40 Am  02 08 51.997712 +13 23 36.57814
 2018-Dec-24 15:41 Am  02 08 52.087313 +13 23 36.78049
 2018-Dec-24 15:42 Am  02 08 52.176933 +13 23 36.98291
 2018-Dec-24 15:43 Am  02 08 52.266571 +13 23 37.18541
 2018-Dec-24 15:44 Am  02 08 52.356227 +13 23 37.38800
 2018-Dec-24 15:45 Am  02 08 52.445902 +13 23 37.59066
 2018-Dec-24 15:46 Am  02 08 52.535594 +13 23 37.79341
 2018-Dec-24 15:47 Am  02 08 52.625305 +13 23 37.99624
 2018-Dec-24 15:48 Am  02 08 52.715033 +13 23 38.19915
 2018-Dec-24 15:49 Am  02 08 52.804779 +13 23 38.40214
 2018-Dec-24 15:50 Am  02 08 52.894543 +13 23 38.60522
 2018-Dec-24 15:51 Am  02 08 52.984324 +13 23 38.80837
 2018-Dec-24 15:52 Am  02 08 53.074123 +13 23 39.01161
 2018-Dec-24 15:53 Am  02 08 53.163939 +13 23 39.21494
 2018-Dec-24 15:54 Am  02 08 53.253772 +13 23 39.41835
 2018-Dec-24 15:55 Am  02 08 53.343623 +13 23 39.62184
 2018-Dec-24 15:56 Am  02 08 53.433490 +13 23 39.82541
 2018-Dec-24 15:57 Am  02 08 53.523375 +13 23 40.02907
 2018-Dec-24 15:58 Am  02 08 53.613276 +13 23 40.23282
 2018-Dec-24 15:59 Am  02 08 53.703194 +13 23 40.43665
 2018-Dec-24 16:00 Am  02 08 53.793128 +13 23 40.64056
 2018-Dec-24 16:01 Am  02 08 53.883080 +13 23 40.84456
 2018-Dec-24 16:02 Am  02 08 53.973047 +13 23 41.04865
 2018-Dec-24 16:03 Nm  02 08 54.063031 +13 23 41.25282
 2018-Dec-24 16:04 Nm  02 08 54.153031 +13 23 41.45707
 2018-Dec-24 16:05 Nm  02 08 54.243048 +13 23 41.66142
 2018-Dec-24 16:06 Nm  02 08 54.333080 +13 23 41.86585
 2018-Dec-24 16:07 Nm  02 08 54.423128 +13 23 42.07036
 2018-Dec-24 16:08 Nm  02 08 54.513192 +13 23 42.27497
 2018-Dec-24 16:09 Nm  02 08 54.603271 +13 23 42.47966
 2018-Dec-24 16:10 Nm  02 08 54.693366 +13 23 42.68444
 2018-Dec-24 16:11 Nm  02 08 54.783477 +13 23 42.88930
 2018-Dec-24 16:12 Nm  02 08 54.873603 +13 23 43.09425
 2018-Dec-24 16:13 Nm  02 08 54.963744 +13 23 43.29929
 2018-Dec-24 16:14 Nm  02 08 55.053901 +13 23 43.50442
 2018-Dec-24 16:15 Nm  02 08 55.144072 +13 23 43.70964
 2018-Dec-24 16:16 Nm  02 08 55.234258 +13 23 43.91495
